FENGYUN 1C DEB          
1 30473U 99025AGL 17345.96544104  .00001311  00000-0  56819-3 0  9993
2 30473  98.8747 332.8966 0013542 337.6205  80.2508 14.25972833561964
